satname,norad_id,inclination_deg,eccentricity,mean_motion_rev_per_day,perigee_km,apogee_km,l1,l2
STARLINK-1169,45061,53.0547,0.0001291,15.06384871,546.3638580473598,548.1519950173906,1 45061U 20006T   25270.35334475  .00000508  00000+0  53018-4 0  9997,2 45061  53.0547 299.8659 0001291  88.1340 271.9797 15.06384871311849
STARLINK-1171,45062,53.0542,0.0001464,15.06383622,546.2478762265328,548.2756329818803,1 45062U 20006U   25270.47129161  .00000553  00000+0  56052-4 0  9996,2 45062  53.0542 299.3314 0001464 108.4596 251.6553 15.06383622311869
STARLINK-1133,45064,53.0544,0.0001488,15.06393343,546.2014658582693,548.2624556609917,1 45064U 20006W   25270.35149232  .00002409  00000+0  18063-3 0  9997,2 45064  53.0544 279.8697 0001488  84.3311 275.7848 15.06393343312128
STARLINK-1150,45067,53.0396,0.0001229,16.03204159,264.7353849432029,266.3684036734239,1 45067U 20006Z   25270.36278321  .00640076  20374-3  10167-2 0  9997,2 45067  53.0396 221.3311 0001229 162.0432 198.0642 16.03204159312945
STARLINK-1167,45071,53.0541,0.0001527,15.06398677,546.1581114017317,548.273114089664,1 45071U 20006AD  25270.31095274  .00002692  00000+0  19957-3 0  9994,2 45071  53.0541 280.0563 0001527  86.4698 273.6465 15.06398677312110
STARLINK-1168,45072,53.0547,0.0001477,15.06395336,546.2029763701112,548.2487285567295,1 45072U 20006AE  25270.24828634 -.00000226  00000+0  36944-5 0  9990,2 45072  53.0547 280.3319 0001477 107.5150 252.6000 15.06395336312101
STARLINK-1172,45074,53.0545,0.0001368,15.0639328,546.2847633467372,548.1795443472301,1 45074U 20006AG  25270.25934195 -.00001878  00000+0 -10725-3 0  9995,2 45074  53.0545 280.2858 0001368  98.2981 261.8163 15.06393280312103
STARLINK-1153,45080,53.0542,0.0001427,15.0639086,546.2513196268528,548.2278221001789,1 45080U 20006AN  25270.23723142  .00002461  00000+0  18410-3 0  9994,2 45080  53.0542 280.3877 0001427  77.2701 282.8447 15.06390860312101
STARLINK-1151,45081,53.0547,0.0001406,15.06387195,546.2770941718236,548.2245132222233,1 45081U 20006AP  25270.28884971  .00000117  00000+0  26763-4 0  9995,2 45081  53.0547 280.2281 0001406  96.1191 263.9958 15.06387195312110
STARLINK-1190,45083,53.0474,0.0008313,15.75066106,338.85459486982745,350.03155650366443,1 45083U 20006AR  25270.58339120  .00125645  00000+0  81624-3 0  9991,2 45083  53.0474 248.0238 0008313  57.8550 204.1750 15.75066106  5862
STARLINK-1173,45084,53.0433,0.0007205,15.86037222,308.58450699788864,318.22702012017726,1 45084U 20006AS  25270.58339120  .00361923  00000+0  13788-2 0  9998,2 45084  53.0433 211.4802 0007205  48.4021 308.9918 15.86037222  6002
STARLINK-1179,45085,53.0364,0.0002538,16.05441101,257.6945343037205,261.0637374943026,1 45085U 20006AT  25270.27860488  .00669216  23099-3  92802-3 0  9999,2 45085  53.0364 202.9231 0002538  95.6559 264.4762 16.05441101313192
STARLINK-1185,45087,53.0543,0.0001417,15.06396335,546.2414671758588,548.2041141405316,1 45087U 20006AV  25270.26488952  .00001716  00000+0  13410-3 0  9998,2 45087  53.0543 260.2597 0001417  82.5338 277.5812 15.06396335312390
STARLINK-1183,45088,53.055,0.0001377,15.06391023,546.2854470019684,548.192695572001,1 45088U 20006AW  25270.35333542  .00001876  00000+0  14484-3 0  9992,2 45088  53.0550 259.8648 0001377  85.8603 274.2543 15.06391023312402
STARLINK-1176,45090,53.048,0.0003492,15.83577376,317.99439250438536,322.6726043004701,1 45090U 20006AY  25270.58339120  .00331076  00000+0  14257-2 0  9993,2 45090  53.0480 209.3206 0003492  36.6884  61.9438 15.83577376  5777
STARLINK-1142,45093,53.0389,0.0005829,15.51585214,408.1391641220089,416.05521914261317,1 45093U 20006BB  25270.22862825  .00126650  00000+0  20731-2 0  9994,2 45093  53.0389 205.8859 0005829  93.9183 266.2492 15.51585214313156
STARLINK-1146,45094,53.0422,0.0004351,16.06818168,252.69996116669518,258.47262717728427,1 45094U 20006BC  25269.65441980  .00896670  44042-3  11429-2 0  9993,2 45094  53.0422 207.1692 0004351 116.3606 243.7874 16.06818168313088
STARLINK-1147,45095,53.0398,0.0005043,15.95839681,282.6150158298906,289.33643992722955,1 45095U 20006BD  25270.58339120  .00410573  79042-4  99209-3 0  9996,2 45095  53.0398 205.5681 0005043  53.1634  57.6349 15.95839681  6065
STARLINK-1152,45096,53.0446,0.00067,15.21348212,497.16343961628263,506.3825189885465,1 45096U 20006BE  25270.33012917  .00079994  00000+0  35003-2 0  9994,2 45096  53.0446 246.1029 0006700  64.2948 295.8739 15.21348212312590
STARLINK-1184,45098,53.0558,0.0001552,15.06386062,546.1794555041424,548.329096956285,1 45098U 20006BG  25270.36808973  .00000048  00000+0  22098-4 0  9990,2 45098  53.0558 259.7939 0001552  89.9232 270.1934 15.06386062312407
STARLINK-1193,45100,53.0532,0.0001208,15.06391394,546.4013489223044,548.0745195064101,1 45100U 20006BJ  25270.36440006  .00002518  00000+0  18790-3 0  9990,2 45100  53.0532 259.8122 0001208  96.8003 263.3123 15.06391394312407
STARLINK-1143,45179,53.0563,0.0003266,15.34873045,459.06385254827364,463.5313712367606,1 45179U 20012B   25270.33375291  .00122661  00000+0  35286-2 0  9993,2 45179  53.0563  31.2196 0003266 238.1027 121.9657 15.34873045310625
STARLINK-1202,45183,53.0557,0.0001313,15.06416591,546.2514177902694,548.0700009687525,1 45183U 20012F   25270.55974255  .00004486  00000+0  31973-3 0  9991,2 45183  53.0557  58.9385 0001313  85.9399 274.1740 15.06416591310251
STARLINK-1216,45185,53.0552,0.0001233,15.0639474,546.3737816626717,548.0815765925445,1 45185U 20012H   25269.68986612  .00001789  00000+0  13899-3 0  9995,2 45185  53.0552  62.8404 0001233  94.7903 265.3227 15.06394740310066
STARLINK-1225,45187,53.0547,0.0001177,15.06407187,546.3744199732837,548.0046418386592,1 45187U 20012K   25270.57079656  .00002682  00000+0  19881-3 0  9998,2 45187  53.0547  58.8877 0001177  80.2518 279.8604 15.06407187310249
STARLINK-1230,45189,53.0552,0.0001228,15.06394298,546.3785988532118,548.0794687511125,1 45189U 20012M   25270.57451042  .00011597  00000+0  79630-3 0  9996,2 45189  53.0552  58.8717 0001228  98.4320 261.6809 15.06394298307474
STARLINK-1234,45190,53.0567,0.0001208,15.0641438,546.3309088781025,548.004062441837,1 45190U 20012N   25270.32753018  .00012009  00000+0  82339-3 0  9998,2 45190  53.0567  19.9785 0001208  91.5477 268.5650 15.06414380310671
STARLINK-1240,45194,53.0371,0.0006247,16.14909089,229.2802613238382,237.54072876414557,1 45194U 20012S   25270.53803440  .01161102  93718-3  86809-3 0  9998,2 45194  53.0371 357.9473 0006247   2.1339 357.9722 16.14909089310993
STARLINK-1269,45197,53.0548,0.0001191,15.06395361,546.4009651350234,548.0505865482291,1 45197U 20012V   25270.38651636 -.00000563  00000+0 -18892-4 0  9992,2 45197  53.0548  59.7155 0001191  88.4395 271.6731 15.06395361310194
STARLINK-1154,45198,53.0554,0.0001326,15.06431112,546.1979172052452,548.0344943554182,1 45198U 20012W   25270.57632816  .00007572  00000+0  52623-3 0  9997,2 45198  53.0554  38.8658 0001326  81.8228 278.2911 15.06431112310479
STARLINK-1199,45201,53.056,0.0001347,15.06403239,546.2687877739863,548.1344740011482,1 45201U 20012Z   25270.52103322  .00001722  00000+0  13447-3 0  9994,2 45201  53.0560  39.1108 0001347  91.9596 268.1548 15.06403239310527
STARLINK-1208,45205,53.0373,0.0002007,16.09996815,245.5223934607984,248.18166405694228,1 45205U 20012AD  25270.19973721  .00858937  42448-3  89343-3 0  9991,2 45205  53.0373 342.1336 0002007  24.0584 336.0543 16.09996815311310
STARLINK-1209,45206,53.0552,0.0001529,15.06403928,546.1406352563854,548.2584031639608,1 45206U 20012AE  25270.33122695  .00006060  00000+0  42532-3 0  9999,2 45206  53.0552  19.9659 0001529  79.7693 280.3469 15.06403928309828
STARLINK-1210,45207,53.029,0.0012377,15.48311809,413.2482124108428,430.08044061449164,1 45207U 20012AF  25270.50841981  .00106070  00000+0  19511-2 0  9997,2 45207  53.0290 350.1630 0012377 288.6323  71.3339 15.48311809311213
STARLINK-1231,45212,53.0541,0.0002134,15.09507236,536.2288261133153,539.1805073366731,1 45212U 20012AL  25270.57207529  .00045469  00000+0  28047-2 0  9992,2 45212  53.0541  38.2944 0002134 219.8043 140.2791 15.09507236310490
STARLINK-1271,45217,53.0564,0.0001385,15.06429374,546.1623840150569,548.0806806285109,1 45217U 20012AR  25270.57264001  .00010072  00000+0  69358-3 0  9998,2 45217  53.0564  38.8794 0001385  77.4617 282.6527 15.06429374310537
STARLINK-1191,45222,53.0571,0.0001573,15.06416189,546.0725919057832,548.2512909527559,1 45222U 20012AW  25270.51550829  .00005682  00000+0  39984-3 0  9997,2 45222  53.0571  19.1359 0001573  92.1630 267.9539 15.06416189310807
STARLINK-1212,45223,53.0577,0.0001353,15.06404855,546.2596804558425,548.1336757491363,1 45223U 20012AX  25270.46766563  .00004367  00000+0  31184-3 0  9999,2 45223  53.0577  20.0045 0001353  92.8815 267.2329 15.06404855310790
STARLINK-1215,45225,53.0543,6.98e-05,15.06402903,546.7192719673585,547.6860493839877,1 45225U 20012AZ  25270.55606436  .00009770  00000+0  67380-3 0  9993,2 45225  53.0543  18.9530 0000698  67.8260 292.2803 15.06402903310761
STARLINK-1217,45226,53.0432,0.0001807,15.9213737,295.0966824207835,297.5088249477658,1 45226U 20012BA  25270.58339120  .00382485  66977-4  11272-2 0  9995,2 45226  53.0432 325.9482 0001807 340.6735 168.8999 15.92137370  6054
STARLINK-1221,45227,53.0683,0.000277,15.35308202,458.1110378272033,461.8993686077865,1 45227U 20012BB  25270.35576695  .00020332  00000+0  59386-3 0  9990,2 45227  53.0683 319.7598 0002770 204.1221 155.9651 15.35308202311564
STARLINK-1222,45228,53.0558,0.0001557,15.06386643,546.174212377553,548.3307786664591,1 45228U 20012BC  25270.32385515  .00013887  00000+0  94966-3 0  9997,2 45228  53.0558  19.9952 0001557  75.9853 284.1309 15.06386643310664
STARLINK-1226,45229,53.0558,0.0001515,15.06404996,546.1470579733896,548.2454339469159,1 45229U 20012BD  25270.48603401  .00005696  00000+0  40091-3 0  9991,2 45229  53.0558  19.2675 0001515  74.2394 285.8762 15.06404996310692
